[
    {
        "Altitude(m)": 555411.182002194,
        "Argument of Periapsis(deg)": 0.013245982221427002,
        "Eccentricity": 0.0,
        "Inclination(deg)": 53.0,
        "Latitude(deg)": 32.137842130192304,
        "Longitude(deg)": 65.33681965304345,
        "Mean Anomaly(deg)": 138.36508573515516,
        "RAAN(deg)": 14.980286737056032,
        "Satellite Name": "Starlink Shell 1 73",
        "Satellite Number": 73,
        "Semi-Major Axis(m)": 6931778.249405717,
        "Time(s)": 380
    },
    {
        "Altitude(m)": 555334.001032532,
        "Argument of Periapsis(deg)": 0.013594560700938237,
        "Eccentricity": 0.0,
        "Inclination(deg)": 53.0,
        "Latitude(deg)": 31.693252313405853,
        "Longitude(deg)": 65.81742239498595,
        "Mean Anomaly(deg)": 138.99191693871185,
        "RAAN(deg)": 14.979767966978562,
        "Satellite Name": "Starlink Shell 1 73",
        "Satellite Number": 73,
        "Semi-Major Axis(m)": 6931778.249405717,
        "Time(s)": 390
    },
    {
        "Altitude(m)": 555257.6769413695,
        "Argument of Periapsis(deg)": 0.013943139180449475,
        "Eccentricity": 0.0,
        "Inclination(deg)": 53.0,
        "Latitude(deg)": 31.246516158406006,
        "Longitude(deg)": 66.29306486912272,
        "Mean Anomaly(deg)": 139.6187481422686,
        "RAAN(deg)": 14.979249196901089,
        "Satellite Name": "Starlink Shell 1 73",
        "Satellite Number": 73,
        "Semi-Major Axis(m)": 6931778.249405717,
        "Time(s)": 400
    },
    {
        "Altitude(m)": 555182.2643830794,
        "Argument of Periapsis(deg)": 0.014291717659960712,
        "Eccentricity": 0.0,
        "Inclination(deg)": 53.0,
        "Latitude(deg)": 30.79768979606202,
        "Longitude(deg)": 66.76385677216548,
        "Mean Anomaly(deg)": 140.24557934582532,
        "RAAN(deg)": 14.978730426823613,
        "Satellite Name": "Starlink Shell 1 73",
        "Satellite Number": 73,
        "Semi-Major Axis(m)": 6931778.249405717,
        "Time(s)": 410
    },
    {
        "Altitude(m)": 555107.8177504502,
        "Argument of Periapsis(deg)": 0.014640296139471948,
        "Eccentricity": 0.0,
        "Inclination(deg)": 53.0,
        "Latitude(deg)": 30.346828100079872,
        "Longitude(deg)": 67.22990606059925,
        "Mean Anomaly(deg)": 140.87241054938204,
        "RAAN(deg)": 14.978211656746142,
        "Satellite Name": "Starlink Shell 1 73",
        "Satellite Number": 73,
        "Semi-Major Axis(m)": 6931778.249405717,
        "Time(s)": 420
    },
    {
        "Altitude(m)": 555034.3911461304,
        "Argument of Periapsis(deg)": 0.014988874618983185,
        "Eccentricity": 0.0,
        "Inclination(deg)": 53.0,
        "Latitude(deg)": 29.893984719434076,
        "Longitude(deg)": 67.69131943000315,
        "Mean Anomaly(deg)": 141.49924175293873,
        "RAAN(deg)": 14.977692886668668,
        "Satellite Name": "Starlink Shell 1 73",
        "Satellite Number": 73,
        "Semi-Major Axis(m)": 6931778.249405717,
        "Time(s)": 430
    },
    {
        "Altitude(m)": 554962.0383541583,
        "Argument of Periapsis(deg)": 0.015337453098494424,
        "Eccentricity": 0.0,
        "Inclination(deg)": 53.0,
        "Latitude(deg)": 29.439212110525215,
        "Longitude(deg)": 68.14820279907364,
        "Mean Anomaly(deg)": 142.12607295649548,
        "RAAN(deg)": 14.977174116591195,
        "Satellite Name": "Starlink Shell 1 73",
        "Satellite Number": 73,
        "Semi-Major Axis(m)": 6931778.249405717,
        "Time(s)": 440
    },
    {
        "Altitude(m)": 554890.812811626,
        "Argument of Periapsis(deg)": 0.01568603157800566,
        "Eccentricity": 0.0,
        "Inclination(deg)": 53.0,
        "Latitude(deg)": 28.982561569018255,
        "Longitude(deg)": 68.6006602851337,
        "Mean Anomaly(deg)": 142.7529041600522,
        "RAAN(deg)": 14.976655346513724,
        "Satellite Name": "Starlink Shell 1 73",
        "Satellite Number": 73,
        "Semi-Major Axis(m)": 6931778.249405717,
        "Time(s)": 450
    },
    {
        "Altitude(m)": 554820.7675804503,
        "Argument of Periapsis(deg)": 0.0160346100575169,
        "Eccentricity": 0.0,
        "Inclination(deg)": 53.0,
        "Latitude(deg)": 28.524083261325497,
        "Longitude(deg)": 69.04879469655448,
        "Mean Anomaly(deg)": 143.37973536360892,
        "RAAN(deg)": 14.976136576436252,
        "Satellite Name": "Starlink Shell 1 73",
        "Satellite Number": 73,
        "Semi-Major Axis(m)": 6931778.249405717,
        "Time(s)": 460
    },
    {
        "Altitude(m)": 554751.9553193052,
        "Argument of Periapsis(deg)": 0.016383188537028134,
        "Eccentricity": 0.0,
        "Inclination(deg)": 53.0,
        "Latitude(deg)": 28.06382625569949,
        "Longitude(deg)": 69.49270802890929,
        "Mean Anomaly(deg)": 144.00656656716563,
        "RAAN(deg)": 14.975617806358777,
        "Satellite Name": "Starlink Shell 1 73",
        "Satellite Number": 73,
        "Semi-Major Axis(m)": 6931778.249405717,
        "Time(s)": 470
    },
    {
        "Altitude(m)": 554684.4282556926,
        "Argument of Periapsis(deg)": 0.01673176701653937,
        "Eccentricity": 0.0,
        "Inclination(deg)": 53.0,
        "Latitude(deg)": 27.60183855290459,
        "Longitude(deg)": 69.93250045169911,
        "Mean Anomaly(deg)": 144.63339777072233,
        "RAAN(deg)": 14.975099036281303,
        "Satellite Name": "Starlink Shell 1 73",
        "Satellite Number": 73,
        "Semi-Major Axis(m)": 6931778.249405717,
        "Time(s)": 480
    },
    {
        "Altitude(m)": 554618.2381581933,
        "Argument of Periapsis(deg)": 0.017080345496050607,
        "Eccentricity": 0.0,
        "Inclination(deg)": 53.0,
        "Latitude(deg)": 27.138167116446102,
        "Longitude(deg)": 70.36827081112784,
        "Mean Anomaly(deg)": 145.26022897427904,
        "RAAN(deg)": 14.974580266203834,
        "Satellite Name": "Starlink Shell 1 73",
        "Satellite Number": 73,
        "Semi-Major Axis(m)": 6931778.249405717,
        "Time(s)": 490
    },
    {
        "Altitude(m)": 554553.4363088962,
        "Argument of Periapsis(deg)": 0.017428923975561842,
        "Eccentricity": 0.0,
        "Inclination(deg)": 53.0,
        "Latitude(deg)": 26.67285790233287,
        "Longitude(deg)": 70.800117135799,
        "Mean Anomaly(deg)": 145.88706017783576,
        "RAAN(deg)": 14.97406149612636,
        "Satellite Name": "Starlink Shell 1 73",
        "Satellite Number": 73,
        "Semi-Major Axis(m)": 6931778.249405717,
        "Time(s)": 500
    },
    {
        "Altitude(m)": 554490.0734760573,
        "Argument of Periapsis(deg)": 0.01777750245507308,
        "Eccentricity": 0.0,
        "Inclination(deg)": 53.0,
        "Latitude(deg)": 26.205955888355764,
        "Longitude(deg)": 71.22813563222176,
        "Mean Anomaly(deg)": 146.51389138139245,
        "RAAN(deg)": 14.973542726048885,
        "Satellite Name": "Starlink Shell 1 73",
        "Satellite Number": 73,
        "Semi-Major Axis(m)": 6931778.249405717,
        "Time(s)": 510
    },
    {
        "Altitude(m)": 554428.1998869166,
        "Argument of Periapsis(deg)": 0.018126080934584315,
        "Eccentricity": 0.0,
        "Inclination(deg)": 53.0,
        "Latitude(deg)": 25.737505102869125,
        "Longitude(deg)": 71.65242119565187,
        "Mean Anomaly(deg)": 147.1407225849492,
        "RAAN(deg)": 14.973023955971417,
        "Satellite Name": "Starlink Shell 1 73",
        "Satellite Number": 73,
        "Semi-Major Axis(m)": 6931778.249405717,
        "Time(s)": 520
    },
    {
        "Altitude(m)": 554367.8652007773,
        "Argument of Periapsis(deg)": 0.018474659414095554,
        "Eccentricity": 0.0,
        "Inclination(deg)": 53.0,
        "Latitude(deg)": 25.26754865306281,
        "Longitude(deg)": 72.07306792318371,
        "Mean Anomaly(deg)": 147.7675537885059,
        "RAAN(deg)": 14.97250518589394,
        "Satellite Name": "Starlink Shell 1 73",
        "Satellite Number": 73,
        "Semi-Major Axis(m)": 6931778.249405717,
        "Time(s)": 530
    },
    {
        "Altitude(m)": 554309.1184823497,
        "Argument of Periapsis(deg)": 0.018823237893606792,
        "Eccentricity": 0.0,
        "Inclination(deg)": 53.0,
        "Latitude(deg)": 24.79612875271501,
        "Longitude(deg)": 72.49016811602479,
        "Mean Anomaly(deg)": 148.39438499206264,
        "RAAN(deg)": 14.971986415816467,
        "Satellite Name": "Starlink Shell 1 73",
        "Satellite Number": 73,
        "Semi-Major Axis(m)": 6931778.249405717,
        "Time(s)": 540
    },
    {
        "Altitude(m)": 554252.0081752974,
        "Argument of Periapsis(deg)": 0.019171816373118027,
        "Eccentricity": 0.0,
        "Inclination(deg)": 53.0,
        "Latitude(deg)": 24.323286749420838,
        "Longitude(deg)": 72.90381279651905,
        "Mean Anomaly(deg)": 149.02121619561936,
        "RAAN(deg)": 14.971467645738995,
        "Satellite Name": "Starlink Shell 1 73",
        "Satellite Number": 73,
        "Semi-Major Axis(m)": 6931778.249405717,
        "Time(s)": 550
    },
    {
        "Altitude(m)": 554196.5820760878,
        "Argument of Periapsis(deg)": 0.019520394852629266,
        "Eccentricity": 0.0,
        "Inclination(deg)": 53.0,
        "Latitude(deg)": 23.849063151292906,
        "Longitude(deg)": 73.31409222687442,
        "Mean Anomaly(deg)": 149.64804739917605,
        "RAAN(deg)": 14.970948875661524,
        "Satellite Name": "Starlink Shell 1 73",
        "Satellite Number": 73,
        "Semi-Major Axis(m)": 6931778.249405717,
        "Time(s)": 560
    }
]